STARLINK-35233          
1 65678U 25212C   25316.93452949  .00053815  00000+0  18120-2 0  9991
2 65678  53.1646 168.2916 0000816 306.4028  53.6897 15.30270533  9376
STARLINK-35205          
1 65679U 25212D   25317.05882950  .00059981  00000+0  20176-2 0  9999
2 65679  53.1593 167.6410 0001319  85.5655 274.5497 15.30254689  9330
STARLINK-35070          
1 65680U 25212E   25317.01030647  .00059204  00000+0  19911-2 0  9998
2 65680  53.1552 167.3383 0001149 101.6473 258.4657 15.30267207  9386
STARLINK-35230          
1 65681U 25212F   25317.10408805  .00038562  00000+0  13046-2 0  9991
2 65681  53.1596 167.2132 0001263  95.4610 264.6535 15.30268628  9401
STARLINK-35235          
1 65682U 25212G   25316.94074756  .00058513  00000+0  19675-2 0  9999
2 65682  53.1624 167.6140 0000669 301.7122  58.3814 15.30276802  9329
STARLINK-34886          
1 65683U 25212H   25316.89233671  .00053923  00000+0  18170-2 0  9996
2 65683  53.1614 168.0243 0001882  97.5330 262.5884 15.30245711  9317
STARLINK-34795          
1 65684U 25212J   25316.97768403  .00038083  00000+0  12887-2 0  9991
2 65684  53.1622 167.8464 0000317 122.5949 237.5083 15.30267065  9326
STARLINK-35145          
1 65685U 25212K   25316.99668687  .00043308  00000+0  14666-2 0  9990
2 65685  53.1570 167.9629 0000822 114.7849 245.3237 15.30184021  9324
STARLINK-35137          
1 65686U 25212L   25316.87927810  .00055499  00000+0  13834-2 0  9994
2 65686  53.1556 165.7646 0000336  84.2109 275.8934 15.39707108  9344
STARLINK-34856          
1 65687U 25212M   25317.01978490  .00056670  00000+0  19072-2 0  9994
2 65687  53.1596 167.3956 0000767  72.2388 287.8697 15.30263989  9338
STARLINK-34930          
1 65688U 25212N   25316.96396966  .00089555  00000+0  29908-2 0  9997
2 65688  53.1656 167.7521 0001903 205.3796 154.7111 15.30293906  9372
STARLINK-34875          
1 65689U 25212P   25316.99034000  .00038544  00000+0  13043-2 0  9994
2 65689  53.1594 167.9236 0001621 250.9967 109.0859 15.30261902  9375
STARLINK-34790          
1 65690U 25212Q   25316.98718302  .00046296  00000+0  15620-2 0  9995
2 65690  53.1599 167.9035 0000693  92.7531 267.3549 15.30272776  9326
STARLINK-34691          
1 65691U 25212R   25317.04151955  .00020198  00000+0  51362-3 0  9996
2 65691  53.1602 164.6391 0001732  89.4799 270.6405 15.39618660  9429
STARLINK-34825          
1 65692U 25212S   25316.97029780  .00041396  00000+0  13998-2 0  9993
2 65692  53.1605 167.7978 0000353 104.3190 255.7851 15.30250795  9362
STARLINK-35060          
1 65693U 25212T   25316.99517326  .00061757  00000+0  15370-2 0  9993
2 65693  53.1631 165.0655 0000528 316.5500  43.5464 15.39708078  9411
