[{"OBJECT_NAME":"STARLINK-35233","OBJECT_ID":"2025-212C","EPOCH":"2025-11-12T22:25:43.347936","MEAN_MOTION":15.30270533,"ECCENTRICITY":8.166e-5,"INCLINATION":53.1646,"RA_OF_ASC_NODE":168.2916,"ARG_OF_PERICENTER":306.4028,"MEAN_ANOMALY":53.6897,"EPHEMERIS_TYPE":0,"CLASSIFICATION_TYPE":"U","NORAD_CAT_ID":65678,"ELEMENT_SET_NO":999,"REV_AT_EPOCH":937,"BSTAR":0.0018120365,"MEAN_MOTION_DOT":0.00053815,"MEAN_MOTION_DDOT":0},{"OBJECT_NAME":"STARLINK-35205","OBJECT_ID":"2025-212D","EPOCH":"2025-11-13T01:24:42.868800","MEAN_MOTION":15.30254689,"ECCENTRICITY":0.00013198,"INCLINATION":53.1593,"RA_OF_ASC_NODE":167.641,"ARG_OF_PERICENTER":85.5655,"MEAN_ANOMALY":274.5497,"EPHEMERIS_TYPE":0,"CLASSIFICATION_TYPE":"U","NORAD_CAT_ID":65679,"ELEMENT_SET_NO":999,"REV_AT_EPOCH":933,"BSTAR":0.0020175783,"MEAN_MOTION_DOT":0.00059981,"MEAN_MOTION_DDOT":0},{"OBJECT_NAME":"STARLINK-35070","OBJECT_ID":"2025-212E","EPOCH":"2025-11-13T00:14:50.479008","MEAN_MOTION":15.30267207,"ECCENTRICITY":0.00011499,"INCLINATION":53.1552,"RA_OF_ASC_NODE":167.3383,"ARG_OF_PERICENTER":101.6473,"MEAN_ANOMALY":258.4657,"EPHEMERIS_TYPE":0,"CLASSIFICATION_TYPE":"U","NORAD_CAT_ID":65680,"ELEMENT_SET_NO":999,"REV_AT_EPOCH":938,"BSTAR":0.0019910523,"MEAN_MOTION_DOT":0.00059204,"MEAN_MOTION_DDOT":0},{"OBJECT_NAME":"STARLINK-35230","OBJECT_ID":"2025-212F","EPOCH":"2025-11-13T02:29:53.207520","MEAN_MOTION":15.30268628,"ECCENTRICITY":0.00012631,"INCLINATION":53.1596,"RA_OF_ASC_NODE":167.2132,"ARG_OF_PERICENTER":95.461,"MEAN_ANOMALY":264.6535,"EPHEMERIS_TYPE":0,"CLASSIFICATION_TYPE":"U","NORAD_CAT_ID":65681,"ELEMENT_SET_NO":999,"REV_AT_EPOCH":940,"BSTAR":0.0013045882,"MEAN_MOTION_DOT":0.00038562,"MEAN_MOTION_DDOT":0},{"OBJECT_NAME":"STARLINK-35235","OBJECT_ID":"2025-212G","EPOCH":"2025-11-12T22:34:40.589184","MEAN_MOTION":15.30276802,"ECCENTRICITY":6.694e-5,"INCLINATION":53.1624,"RA_OF_ASC_NODE":167.614,"ARG_OF_PERICENTER":301.7122,"MEAN_ANOMALY":58.3814,"EPHEMERIS_TYPE":0,"CLASSIFICATION_TYPE":"U","NORAD_CAT_ID":65682,"ELEMENT_SET_NO":999,"REV_AT_EPOCH":932,"BSTAR":0.0019675363,"MEAN_MOTION_DOT":0.00058513,"MEAN_MOTION_DDOT":0},{"OBJECT_NAME":"STARLINK-34886","OBJECT_ID":"2025-212H","EPOCH":"2025-11-12T21:24:57.891744","MEAN_MOTION":15.30245711,"ECCENTRICITY":0.0001882,"INCLINATION":53.1614,"RA_OF_ASC_NODE":168.0243,"ARG_OF_PERICENTER":97.533,"MEAN_ANOMALY":262.5884,"EPHEMERIS_TYPE":0,"CLASSIFICATION_TYPE":"U","NORAD_CAT_ID":65683,"ELEMENT_SET_NO":999,"REV_AT_EPOCH":931,"BSTAR":0.001817,"MEAN_MOTION_DOT":0.00053923,"MEAN_MOTION_DDOT":0},{"OBJECT_NAME":"STARLINK-34795","OBJECT_ID":"2025-212J","EPOCH":"2025-11-12T23:27:51.900192","MEAN_MOTION":15.30267065,"ECCENTRICITY":3.178e-5,"INCLINATION":53.1622,"RA_OF_ASC_NODE":167.8464,"ARG_OF_PERICENTER":122.5949,"MEAN_ANOMALY":237.5083,"EPHEMERIS_TYPE":0,"CLASSIFICATION_TYPE":"U","NORAD_CAT_ID":65684,"ELEMENT_SET_NO":999,"REV_AT_EPOCH":932,"BSTAR":0.0012886865,"MEAN_MOTION_DOT":0.00038083,"MEAN_MOTION_DDOT":0},{"OBJECT_NAME":"STARLINK-35145","OBJECT_ID":"2025-212K","EPOCH":"2025-11-12T23:55:13.745568","MEAN_MOTION":15.30184021,"ECCENTRICITY":8.222e-5,"INCLINATION":53.157,"RA_OF_ASC_NODE":167.9629,"ARG_OF_PERICENTER":114.7849,"MEAN_ANOMALY":245.3237,"EPHEMERIS_TYPE":0,"CLASSIFICATION_TYPE":"U","NORAD_CAT_ID":65685,"ELEMENT_SET_NO":999,"REV_AT_EPOCH":932,"BSTAR":0.0014665579,"MEAN_MOTION_DOT":0.00043308,"MEAN_MOTION_DDOT":0},{"OBJECT_NAME":"STARLINK-35137","OBJECT_ID":"2025-212L","EPOCH":"2025-11-12T21:06:09.627840","MEAN_MOTION":15.39707108,"ECCENTRICITY":3.369e-5,"INCLINATION":53.1556,"RA_OF_ASC_NODE":165.7646,"ARG_OF_PERICENTER":84.2109,"MEAN_ANOMALY":275.8934,"EPHEMERIS_TYPE":0,"CLASSIFICATION_TYPE":"U","NORAD_CAT_ID":65686,"ELEMENT_SET_NO":999,"REV_AT_EPOCH":934,"BSTAR":0.0013834183,"MEAN_MOTION_DOT":0.00055499,"MEAN_MOTION_DDOT":0},{"OBJECT_NAME":"STARLINK-34856","OBJECT_ID":"2025-212M","EPOCH":"2025-11-13T00:28:29.415360","MEAN_MOTION":15.30263989,"ECCENTRICITY":7.67e-5,"INCLINATION":53.1596,"RA_OF_ASC_NODE":167.3956,"ARG_OF_PERICENTER":72.2388,"MEAN_ANOMALY":287.8697,"EPHEMERIS_TYPE":0,"CLASSIFICATION_TYPE":"U","NORAD_CAT_ID":65687,"ELEMENT_SET_NO":999,"REV_AT_EPOCH":933,"BSTAR":0.0019071923,"MEAN_MOTION_DOT":0.0005667,"MEAN_MOTION_DDOT":0},{"OBJECT_NAME":"STARLINK-34930","OBJECT_ID":"2025-212N","EPOCH":"2025-11-12T23:08:06.978624","MEAN_MOTION":15.30293906,"ECCENTRICITY":0.00019037,"INCLINATION":53.1656,"RA_OF_ASC_NODE":167.7521,"ARG_OF_PERICENTER":205.3796,"MEAN_ANOMALY":154.7111,"EPHEMERIS_TYPE":0,"CLASSIFICATION_TYPE":"U","NORAD_CAT_ID":65688,"ELEMENT_SET_NO":999,"REV_AT_EPOCH":937,"BSTAR":0.002990835,"MEAN_MOTION_DOT":0.00089555,"MEAN_MOTION_DDOT":0},{"OBJECT_NAME":"STARLINK-34875","OBJECT_ID":"2025-212P","EPOCH":"2025-11-12T23:46:05.376000","MEAN_MOTION":15.30261902,"ECCENTRICITY":0.00016217,"INCLINATION":53.1594,"RA_OF_ASC_NODE":167.9236,"ARG_OF_PERICENTER":250.9967,"MEAN_ANOMALY":109.0859,"EPHEMERIS_TYPE":0,"CLASSIFICATION_TYPE":"U","NORAD_CAT_ID":65689,"ELEMENT_SET_NO":999,"REV_AT_EPOCH":937,"BSTAR":0.0013042512,"MEAN_MOTION_DOT":0.00038544,"MEAN_MOTION_DDOT":0},{"OBJECT_NAME":"STARLINK-34790","OBJECT_ID":"2025-212Q","EPOCH":"2025-11-12T23:41:32.612928","MEAN_MOTION":15.30272776,"ECCENTRICITY":6.937e-5,"INCLINATION":53.1599,"RA_OF_ASC_NODE":167.9035,"ARG_OF_PERICENTER":92.7531,"MEAN_ANOMALY":267.3549,"EPHEMERIS_TYPE":0,"CLASSIFICATION_TYPE":"U","NORAD_CAT_ID":65690,"ELEMENT_SET_NO":999,"REV_AT_EPOCH":932,"BSTAR":0.0015620018,"MEAN_MOTION_DOT":0.00046296,"MEAN_MOTION_DDOT":0},{"OBJECT_NAME":"STARLINK-34691","OBJECT_ID":"2025-212R","EPOCH":"2025-11-13T00:59:47.289120","MEAN_MOTION":15.3961866,"ECCENTRICITY":0.00017325,"INCLINATION":53.1602,"RA_OF_ASC_NODE":164.6391,"ARG_OF_PERICENTER":89.4799,"MEAN_ANOMALY":270.6405,"EPHEMERIS_TYPE":0,"CLASSIFICATION_TYPE":"U","NORAD_CAT_ID":65691,"ELEMENT_SET_NO":999,"REV_AT_EPOCH":942,"BSTAR":0.00051362153,"MEAN_MOTION_DOT":0.00020198,"MEAN_MOTION_DDOT":0},{"OBJECT_NAME":"STARLINK-34825","OBJECT_ID":"2025-212S","EPOCH":"2025-11-12T23:17:13.729920","MEAN_MOTION":15.30250795,"ECCENTRICITY":3.539e-5,"INCLINATION":53.1605,"RA_OF_ASC_NODE":167.7978,"ARG_OF_PERICENTER":104.319,"MEAN_ANOMALY":255.7851,"EPHEMERIS_TYPE":0,"CLASSIFICATION_TYPE":"U","NORAD_CAT_ID":65692,"ELEMENT_SET_NO":999,"REV_AT_EPOCH":936,"BSTAR":0.0013998155,"MEAN_MOTION_DOT":0.00041396,"MEAN_MOTION_DDOT":0},{"OBJECT_NAME":"STARLINK-35060","OBJECT_ID":"2025-212T","EPOCH":"2025-11-12T23:53:02.969664","MEAN_MOTION":15.39708078,"ECCENTRICITY":5.281e-5,"INCLINATION":53.1631,"RA_OF_ASC_NODE":165.0655,"ARG_OF_PERICENTER":316.55,"MEAN_ANOMALY":43.5464,"EPHEMERIS_TYPE":0,"CLASSIFICATION_TYPE":"U","NORAD_CAT_ID":65693,"ELEMENT_SET_NO":999,"REV_AT_EPOCH":941,"BSTAR":0.0015369856,"MEAN_MOTION_DOT":0.00061757,"MEAN_MOTION_DDOT":0}]
